STARLINK-36247          
1 68245U 26054P   26088.16668981  .00028044  00000+0  14536-3 0  9990
2 68245  53.1595 214.9574 0000885  94.6187 333.5613 15.80843193  3080
STARLINK-37043          
1 68246U 26054Q   26088.16668981  .00077505  00000+0  39378-3 0  9998
2 68246  53.1598 214.9397 0001417  98.6393 338.0977 15.80812959  3047
STARLINK-37044          
1 68247U 26054R   26088.16668981  .00016362  00000+0  86374-4 0  9992
2 68247  53.1597 214.9306 0000946 117.4037 323.5911 15.80848997  3046
STARLINK-36997          
1 68248U 26054S   26088.16668981 -.00232012  00000+0 -15414-2 0  9992
2 68248  53.1599 214.9443 0000716  65.2202   9.0529 15.75384810  3044
STARLINK-37141          
1 68249U 26054T   26088.16668981  .00130524  00000+0  65725-3 0  9997
2 68249  53.1596 214.9134 0001096  94.3475 355.2023 15.80794795  3123
STARLINK-37087          
1 68250U 26054U   26088.16668981  .00094140  00000+0  47660-3 0  9990
2 68250  53.1597 214.9045 0001027 108.1769 345.6383 15.80813973  3044
STARLINK-36274          
1 68251U 26054V   26088.16668981 -.01900541  00000+0 -12542-1 0  9994
2 68251  53.1599 214.9021 0001139  72.6767  22.0674 15.78084797  3082
STARLINK-37085          
1 68252U 26054W   26088.16668981  .00018239  00000+0  95818-4 0  9996
2 68252  53.1597 214.8865 0001040 120.5283 341.8187 15.80857473  3042
STARLINK-37086          
1 68253U 26054X   26088.16668981  .00010918  00000+0  58802-4 0  9995
2 68253  53.1596 214.8782 0001117  81.9206  24.6936 15.80866858  3045
STARLINK-37084          
1 68254U 26054Y   26088.16668981  .00096984  00000+0  49069-3 0  9997
2 68254  53.1595 214.8603 0001290 107.4697   7.7061 15.80816077  3046
STARLINK-37075          
1 68255U 26054Z   26088.16668981  .00113224  00000+0  57134-3 0  9997
2 68255  53.1595 214.8691 0001050 100.6708  10.2353 15.80810148  3042
STARLINK-36333          
1 68256U 26054AA  26088.16668981  .00109901  00000+0  55512-3 0  9993
2 68256  53.1594 214.8518 0001062  96.8519  22.5987 15.80801126  3088
