CCSDS_OMM_VERS = 2.0
CREATION_DATE  = 
ORIGINATOR     = 

OBJECT_NAME    = STARLINK-36247
OBJECT_ID      = 2026-054P
CENTER_NAME    = EARTH
REF_FRAME      = TEME
TIME_SYSTEM    = UTC
MEAN_ELEMENT_THEORY = SGP/SGP4

EPOCH          = 2026-03-29T04:00:01.999584
MEAN_MOTION    = 15.80843193
ECCENTRICITY   = .0000885
INCLINATION    = 53.1595
RA_OF_ASC_NODE = 214.9574
ARG_OF_PERICENTER = 94.6187
MEAN_ANOMALY   = 333.5613

EPHEMERIS_TYPE = 0
CLASSIFICATION_TYPE = U
NORAD_CAT_ID   = 68245
ELEMENT_SET_NO = 999
REV_AT_EPOCH   = 308
BSTAR          = .14536E-3
MEAN_MOTION_DOT = .28044E-3
MEAN_MOTION_DDOT = 0

CCSDS_OMM_VERS = 2.0
CREATION_DATE  = 
ORIGINATOR     = 

OBJECT_NAME    = STARLINK-37043
OBJECT_ID      = 2026-054Q
CENTER_NAME    = EARTH
REF_FRAME      = TEME
TIME_SYSTEM    = UTC
MEAN_ELEMENT_THEORY = SGP/SGP4

EPOCH          = 2026-03-29T04:00:01.999584
MEAN_MOTION    = 15.80812959
ECCENTRICITY   = .0001417
INCLINATION    = 53.1598
RA_OF_ASC_NODE = 214.9397
ARG_OF_PERICENTER = 98.6393
MEAN_ANOMALY   = 338.0977

EPHEMERIS_TYPE = 0
CLASSIFICATION_TYPE = U
NORAD_CAT_ID   = 68246
ELEMENT_SET_NO = 999
REV_AT_EPOCH   = 304
BSTAR          = .39378E-3
MEAN_MOTION_DOT = .77505E-3
MEAN_MOTION_DDOT = 0

CCSDS_OMM_VERS = 2.0
CREATION_DATE  = 
ORIGINATOR     = 

OBJECT_NAME    = STARLINK-37044
OBJECT_ID      = 2026-054R
CENTER_NAME    = EARTH
REF_FRAME      = TEME
TIME_SYSTEM    = UTC
MEAN_ELEMENT_THEORY = SGP/SGP4

EPOCH          = 2026-03-29T04:00:01.999584
MEAN_MOTION    = 15.80848997
ECCENTRICITY   = .0000946
INCLINATION    = 53.1597
RA_OF_ASC_NODE = 214.9306
ARG_OF_PERICENTER = 117.4037
MEAN_ANOMALY   = 323.5911

EPHEMERIS_TYPE = 0
CLASSIFICATION_TYPE = U
NORAD_CAT_ID   = 68247
ELEMENT_SET_NO = 999
REV_AT_EPOCH   = 304
BSTAR          = .86374E-4
MEAN_MOTION_DOT = .16362E-3
MEAN_MOTION_DDOT = 0

CCSDS_OMM_VERS = 2.0
CREATION_DATE  = 
ORIGINATOR     = 

OBJECT_NAME    = STARLINK-36997
OBJECT_ID      = 2026-054S
CENTER_NAME    = EARTH
REF_FRAME      = TEME
TIME_SYSTEM    = UTC
MEAN_ELEMENT_THEORY = SGP/SGP4

EPOCH          = 2026-03-29T04:00:01.999584
MEAN_MOTION    = 15.75384810
ECCENTRICITY   = .0000716
INCLINATION    = 53.1599
RA_OF_ASC_NODE = 214.9443
ARG_OF_PERICENTER = 65.2202
MEAN_ANOMALY   = 9.0529

EPHEMERIS_TYPE = 0
CLASSIFICATION_TYPE = U
NORAD_CAT_ID   = 68248
ELEMENT_SET_NO = 999
REV_AT_EPOCH   = 304
BSTAR          = -.15414E-2
MEAN_MOTION_DOT = -.232012E-2
MEAN_MOTION_DDOT = 0

CCSDS_OMM_VERS = 2.0
CREATION_DATE  = 
ORIGINATOR     = 

OBJECT_NAME    = STARLINK-37141
OBJECT_ID      = 2026-054T
CENTER_NAME    = EARTH
REF_FRAME      = TEME
TIME_SYSTEM    = UTC
MEAN_ELEMENT_THEORY = SGP/SGP4

EPOCH          = 2026-03-29T04:00:01.999584
MEAN_MOTION    = 15.80794795
ECCENTRICITY   = .0001096
INCLINATION    = 53.1596
RA_OF_ASC_NODE = 214.9134
ARG_OF_PERICENTER = 94.3475
MEAN_ANOMALY   = 355.2023

EPHEMERIS_TYPE = 0
CLASSIFICATION_TYPE = U
NORAD_CAT_ID   = 68249
ELEMENT_SET_NO = 999
REV_AT_EPOCH   = 312
BSTAR          = .65725E-3
MEAN_MOTION_DOT = .130524E-2
MEAN_MOTION_DDOT = 0

CCSDS_OMM_VERS = 2.0
CREATION_DATE  = 
ORIGINATOR     = 

OBJECT_NAME    = STARLINK-37087
OBJECT_ID      = 2026-054U
CENTER_NAME    = EARTH
REF_FRAME      = TEME
TIME_SYSTEM    = UTC
MEAN_ELEMENT_THEORY = SGP/SGP4

EPOCH          = 2026-03-29T04:00:01.999584
MEAN_MOTION    = 15.80813973
ECCENTRICITY   = .0001027
INCLINATION    = 53.1597
RA_OF_ASC_NODE = 214.9045
ARG_OF_PERICENTER = 108.1769
MEAN_ANOMALY   = 345.6383

EPHEMERIS_TYPE = 0
CLASSIFICATION_TYPE = U
NORAD_CAT_ID   = 68250
ELEMENT_SET_NO = 999
REV_AT_EPOCH   = 304
BSTAR          = .4766E-3
MEAN_MOTION_DOT = .9414E-3
MEAN_MOTION_DDOT = 0

CCSDS_OMM_VERS = 2.0
CREATION_DATE  = 
ORIGINATOR     = 

OBJECT_NAME    = STARLINK-36274
OBJECT_ID      = 2026-054V
CENTER_NAME    = EARTH
REF_FRAME      = TEME
TIME_SYSTEM    = UTC
MEAN_ELEMENT_THEORY = SGP/SGP4

EPOCH          = 2026-03-29T04:00:01.999584
MEAN_MOTION    = 15.78084797
ECCENTRICITY   = .0001139
INCLINATION    = 53.1599
RA_OF_ASC_NODE = 214.9021
ARG_OF_PERICENTER = 72.6767
MEAN_ANOMALY   = 22.0674

EPHEMERIS_TYPE = 0
CLASSIFICATION_TYPE = U
NORAD_CAT_ID   = 68251
ELEMENT_SET_NO = 999
REV_AT_EPOCH   = 308
BSTAR          = -.12542E-1
MEAN_MOTION_DOT = -.1900541E-1
MEAN_MOTION_DDOT = 0

CCSDS_OMM_VERS = 2.0
CREATION_DATE  = 
ORIGINATOR     = 

OBJECT_NAME    = STARLINK-37085
OBJECT_ID      = 2026-054W
CENTER_NAME    = EARTH
REF_FRAME      = TEME
TIME_SYSTEM    = UTC
MEAN_ELEMENT_THEORY = SGP/SGP4

EPOCH          = 2026-03-29T04:00:01.999584
MEAN_MOTION    = 15.80857473
ECCENTRICITY   = .000104
INCLINATION    = 53.1597
RA_OF_ASC_NODE = 214.8865
ARG_OF_PERICENTER = 120.5283
MEAN_ANOMALY   = 341.8187

EPHEMERIS_TYPE = 0
CLASSIFICATION_TYPE = U
NORAD_CAT_ID   = 68252
ELEMENT_SET_NO = 999
REV_AT_EPOCH   = 304
BSTAR          = .95818E-4
MEAN_MOTION_DOT = .18239E-3
MEAN_MOTION_DDOT = 0

CCSDS_OMM_VERS = 2.0
CREATION_DATE  = 
ORIGINATOR     = 

OBJECT_NAME    = STARLINK-37086
OBJECT_ID      = 2026-054X
CENTER_NAME    = EARTH
REF_FRAME      = TEME
TIME_SYSTEM    = UTC
MEAN_ELEMENT_THEORY = SGP/SGP4

EPOCH          = 2026-03-29T04:00:01.999584
MEAN_MOTION    = 15.80866858
ECCENTRICITY   = .0001117
INCLINATION    = 53.1596
RA_OF_ASC_NODE = 214.8782
ARG_OF_PERICENTER = 81.9206
MEAN_ANOMALY   = 24.6936

EPHEMERIS_TYPE = 0
CLASSIFICATION_TYPE = U
NORAD_CAT_ID   = 68253
ELEMENT_SET_NO = 999
REV_AT_EPOCH   = 304
BSTAR          = .58802E-4
MEAN_MOTION_DOT = .10918E-3
MEAN_MOTION_DDOT = 0

CCSDS_OMM_VERS = 2.0
CREATION_DATE  = 
ORIGINATOR     = 

OBJECT_NAME    = STARLINK-37084
OBJECT_ID      = 2026-054Y
CENTER_NAME    = EARTH
REF_FRAME      = TEME
TIME_SYSTEM    = UTC
MEAN_ELEMENT_THEORY = SGP/SGP4

EPOCH          = 2026-03-29T04:00:01.999584
MEAN_MOTION    = 15.80816077
ECCENTRICITY   = .000129
INCLINATION    = 53.1595
RA_OF_ASC_NODE = 214.8603
ARG_OF_PERICENTER = 107.4697
MEAN_ANOMALY   = 7.7061

EPHEMERIS_TYPE = 0
CLASSIFICATION_TYPE = U
NORAD_CAT_ID   = 68254
ELEMENT_SET_NO = 999
REV_AT_EPOCH   = 304
BSTAR          = .49069E-3
MEAN_MOTION_DOT = .96984E-3
MEAN_MOTION_DDOT = 0

CCSDS_OMM_VERS = 2.0
CREATION_DATE  = 
ORIGINATOR     = 

OBJECT_NAME    = STARLINK-37075
OBJECT_ID      = 2026-054Z
CENTER_NAME    = EARTH
REF_FRAME      = TEME
TIME_SYSTEM    = UTC
MEAN_ELEMENT_THEORY = SGP/SGP4

EPOCH          = 2026-03-29T04:00:01.999584
MEAN_MOTION    = 15.80810148
ECCENTRICITY   = .000105
INCLINATION    = 53.1595
RA_OF_ASC_NODE = 214.8691
ARG_OF_PERICENTER = 100.6708
MEAN_ANOMALY   = 10.2353

EPHEMERIS_TYPE = 0
CLASSIFICATION_TYPE = U
NORAD_CAT_ID   = 68255
ELEMENT_SET_NO = 999
REV_AT_EPOCH   = 304
BSTAR          = .57134E-3
MEAN_MOTION_DOT = .113224E-2
MEAN_MOTION_DDOT = 0

CCSDS_OMM_VERS = 2.0
CREATION_DATE  = 
ORIGINATOR     = 

OBJECT_NAME    = STARLINK-36333
OBJECT_ID      = 2026-054AA
CENTER_NAME    = EARTH
REF_FRAME      = TEME
TIME_SYSTEM    = UTC
MEAN_ELEMENT_THEORY = SGP/SGP4

EPOCH          = 2026-03-29T04:00:01.999584
MEAN_MOTION    = 15.80801126
ECCENTRICITY   = .0001062
INCLINATION    = 53.1594
RA_OF_ASC_NODE = 214.8518
ARG_OF_PERICENTER = 96.8519
MEAN_ANOMALY   = 22.5987

EPHEMERIS_TYPE = 0
CLASSIFICATION_TYPE = U
NORAD_CAT_ID   = 68256
ELEMENT_SET_NO = 999
REV_AT_EPOCH   = 308
BSTAR          = .55512E-3
MEAN_MOTION_DOT = .109901E-2
MEAN_MOTION_DDOT = 0

